[{"OBJECT_NAME":"STARLINK-35234","OBJECT_ID":"2025-207K","EPOCH":"2026-03-09T17:16:40.118592","MEAN_MOTION":15.056629,"ECCENTRICITY":0.00028496,"INCLINATION":97.6007,"RA_OF_ASC_NODE":138.6563,"ARG_OF_PERICENTER":188.3663,"MEAN_ANOMALY":171.7517,"EPHEMERIS_TYPE":0,"CLASSIFICATION_TYPE":"U","NORAD_CAT_ID":65601,"ELEMENT_SET_NO":999,"REV_AT_EPOCH":2826,"BSTAR":7.6963005e-5,"MEAN_MOTION_DOT":1.05e-5,"MEAN_MOTION_DDOT":0},{"OBJECT_NAME":"COSMOS 2251 DEB","OBJECT_ID":"1993-036HX","EPOCH":"2026-03-09T21:31:03.673056","MEAN_MOTION":15.04193551,"ECCENTRICITY":0.00046843,"INCLINATION":74.0171,"RA_OF_ASC_NODE":332.1487,"ARG_OF_PERICENTER":332.3762,"MEAN_ANOMALY":27.7177,"EPHEMERIS_TYPE":0,"CLASSIFICATION_TYPE":"U","NORAD_CAT_ID":34036,"ELEMENT_SET_NO":999,"REV_AT_EPOCH":89876,"BSTAR":0.0040391987,"MEAN_MOTION_DOT":0.00056541,"MEAN_MOTION_DDOT":0}]
